IRIDIUM 124             
1 42810U 17039H   26032.92658538  .00000422  00000+0  11953-3 0  9993
2 42810  86.4529 346.9086 0002332  81.2262 278.9203 14.43281710455600
IRIDIUM 128             
1 42811U 17039J   26032.64892498  .00000321  00000+0  10749-3 0  9998
2 42811  86.3926  81.8338 0002029  89.1027 271.0401 14.34213923450559
IRIDIUM 121             
1 42812U 17039K   26032.95628137  .00000130  00000+0  39247-4 0  9993
2 42812  86.3927  50.1867 0002112  90.7780 269.3658 14.34218237450449
IRIDIUM 133             
1 42955U 17061A   26032.88993938  .00000263  00000+0  86709-4 0  9994
2 42955  86.3927  81.8475 0002237  92.1561 267.9891 14.34217599435383
IRIDIUM 100             
1 42956U 17061B   26032.67429303  .00000276  00000+0  91644-4 0  9990
2 42956  86.3926  81.8594 0002190  93.0793 267.0654 14.34217133435359
IRIDIUM 122             
1 42957U 17061C   26032.64257871  .00000072  00000+0  18779-4 0  9999
2 42957  86.3927  81.8725 0002299  92.4177 267.7282 14.34217472435356
IRIDIUM 129             
1 42958U 17061D   26032.66794888  .00000202  00000+0  65017-4 0  9998
2 42958  86.3925  81.9275 0002352 102.5977 257.5482 14.34217480435377
IRIDIUM 119             
1 42959U 17061E   26032.84554172  .00000119  00000+0  35554-4 0  9999
2 42959  86.3925  81.8483 0002378  95.3929 264.7538 14.34217287435414
IRIDIUM 107             
1 42960U 17061F   26032.65526417  .00000037  00000+0  59695-5 0  9993
2 42960  86.3931  81.9484 0002392  86.7511 273.3959 14.34216737435391
IRIDIUM 132             
1 42961U 17061G   26032.66160582  .00000157  00000+0  49117-4 0  9992
2 42961  86.3927  81.9263 0002219  90.9784 269.1666 14.34217364435394
IRIDIUM 136             
1 42962U 17061H   26032.55378372  .00000283  00000+0  94143-4 0  9998
2 42962  86.3929  81.9775 0002361  93.2964 266.8502 14.34218819435398
IRIDIUM 139             
1 42963U 17061J   26032.69966096  .00000094  00000+0  26344-4 0  9998
2 42963  86.3927  81.9762 0002188  90.9920 269.1526 14.34216646435428
IRIDIUM 125             
1 42964U 17061K   26032.82650986  .00000186  00000+0  59436-4 0  9992
2 42964  86.3930  81.9818 0002772  89.7722 270.3791 14.34215681435459
IRIDIUM 135             
1 43070U 17083A   26032.94017626  .00000030  00000+0  37866-5 0  9998
2 43070  86.3967  18.5283 0002178  89.0312 271.1134 14.34217214424764
IRIDIUM 138             
1 43071U 17083B   26032.96554650  .00000125  00000+0  37562-4 0  9991
2 43071  86.3981  18.1924 0002541  92.4750 267.6737 14.34217065424759
IRIDIUM 116             
1 43072U 17083C   26032.93383080  .00000212  00000+0  68503-4 0  9992
2 43072  86.3966  18.5187 0001924  81.7268 278.4146 14.34216229424785
IRIDIUM 130             
1 43073U 17083D   26032.97188861  .00000097  00000+0  27619-4 0  9991
2 43073  86.3975  18.7648 0002172  80.1131 280.0310 14.34217699424737
