[{"OBJECT_NAME":"IRIDIUM 124","OBJECT_ID":"2017-039H","EPOCH":"2026-02-01T22:14:16.976832","MEAN_MOTION":14.4328171,"ECCENTRICITY":0.00023329,"INCLINATION":86.4529,"RA_OF_ASC_NODE":346.9086,"ARG_OF_PERICENTER":81.2262,"MEAN_ANOMALY":278.9203,"EPHEMERIS_TYPE":0,"CLASSIFICATION_TYPE":"U","NORAD_CAT_ID":42810,"ELEMENT_SET_NO":999,"REV_AT_EPOCH":45560,"BSTAR":0.00011952546,"MEAN_MOTION_DOT":4.22e-6,"MEAN_MOTION_DDOT":0},{"OBJECT_NAME":"IRIDIUM 128","OBJECT_ID":"2017-039J","EPOCH":"2026-02-01T15:34:27.118272","MEAN_MOTION":14.34213923,"ECCENTRICITY":0.00020293,"INCLINATION":86.3926,"RA_OF_ASC_NODE":81.8338,"ARG_OF_PERICENTER":89.1027,"MEAN_ANOMALY":271.0401,"EPHEMERIS_TYPE":0,"CLASSIFICATION_TYPE":"U","NORAD_CAT_ID":42811,"ELEMENT_SET_NO":999,"REV_AT_EPOCH":45055,"BSTAR":0.0001074944,"MEAN_MOTION_DOT":3.21e-6,"MEAN_MOTION_DDOT":0},{"OBJECT_NAME":"IRIDIUM 121","OBJECT_ID":"2017-039K","EPOCH":"2026-02-01T22:57:02.710368","MEAN_MOTION":14.34218237,"ECCENTRICITY":0.00021129,"INCLINATION":86.3927,"RA_OF_ASC_NODE":50.1867,"ARG_OF_PERICENTER":90.778,"MEAN_ANOMALY":269.3658,"EPHEMERIS_TYPE":0,"CLASSIFICATION_TYPE":"U","NORAD_CAT_ID":42812,"ELEMENT_SET_NO":999,"REV_AT_EPOCH":45044,"BSTAR":3.9247318e-5,"MEAN_MOTION_DOT":1.3e-6,"MEAN_MOTION_DDOT":0},{"OBJECT_NAME":"IRIDIUM 133","OBJECT_ID":"2017-061A","EPOCH":"2026-02-01T21:21:30.762432","MEAN_MOTION":14.34217599,"ECCENTRICITY":0.00022372,"INCLINATION":86.3927,"RA_OF_ASC_NODE":81.8475,"ARG_OF_PERICENTER":92.1561,"MEAN_ANOMALY":267.9891,"EPHEMERIS_TYPE":0,"CLASSIFICATION_TYPE":"U","NORAD_CAT_ID":42955,"ELEMENT_SET_NO":999,"REV_AT_EPOCH":43538,"BSTAR":8.6708763e-5,"MEAN_MOTION_DOT":2.63e-6,"MEAN_MOTION_DDOT":0},{"OBJECT_NAME":"IRIDIUM 100","OBJECT_ID":"2017-061B","EPOCH":"2026-02-01T16:10:58.917792","MEAN_MOTION":14.34217133,"ECCENTRICITY":0.00021904,"INCLINATION":86.3926,"RA_OF_ASC_NODE":81.8594,"ARG_OF_PERICENTER":93.0793,"MEAN_ANOMALY":267.0654,"EPHEMERIS_TYPE":0,"CLASSIFICATION_TYPE":"U","NORAD_CAT_ID":42956,"ELEMENT_SET_NO":999,"REV_AT_EPOCH":43535,"BSTAR":9.164359e-5,"MEAN_MOTION_DOT":2.76e-6,"MEAN_MOTION_DDOT":0},{"OBJECT_NAME":"IRIDIUM 122","OBJECT_ID":"2017-061C","EPOCH":"2026-02-01T15:25:18.800544","MEAN_MOTION":14.34217472,"ECCENTRICITY":0.00022996,"INCLINATION":86.3927,"RA_OF_ASC_NODE":81.8725,"ARG_OF_PERICENTER":92.4177,"MEAN_ANOMALY":267.7282,"EPHEMERIS_TYPE":0,"CLASSIFICATION_TYPE":"U","NORAD_CAT_ID":42957,"ELEMENT_SET_NO":999,"REV_AT_EPOCH":43535,"BSTAR":1.8779414e-5,"MEAN_MOTION_DOT":7.2e-7,"MEAN_MOTION_DDOT":0},{"OBJECT_NAME":"IRIDIUM 129","OBJECT_ID":"2017-061D","EPOCH":"2026-02-01T16:01:50.783232","MEAN_MOTION":14.3421748,"ECCENTRICITY":0.00023521,"INCLINATION":86.3925,"RA_OF_ASC_NODE":81.9275,"ARG_OF_PERICENTER":102.5977,"MEAN_ANOMALY":257.5482,"EPHEMERIS_TYPE":0,"CLASSIFICATION_TYPE":"U","NORAD_CAT_ID":42958,"ELEMENT_SET_NO":999,"REV_AT_EPOCH":43537,"BSTAR":6.5017407e-5,"MEAN_MOTION_DOT":2.02e-6,"MEAN_MOTION_DDOT":0},{"OBJECT_NAME":"IRIDIUM 119","OBJECT_ID":"2017-061E","EPOCH":"2026-02-01T20:17:34.804608","MEAN_MOTION":14.34217287,"ECCENTRICITY":0.00023787,"INCLINATION":86.3925,"RA_OF_ASC_NODE":81.8483,"ARG_OF_PERICENTER":95.3929,"MEAN_ANOMALY":264.7538,"EPHEMERIS_TYPE":0,"CLASSIFICATION_TYPE":"U","NORAD_CAT_ID":42959,"ELEMENT_SET_NO":999,"REV_AT_EPOCH":43541,"BSTAR":3.5553753e-5,"MEAN_MOTION_DOT":1.19e-6,"MEAN_MOTION_DDOT":0},{"OBJECT_NAME":"IRIDIUM 107","OBJECT_ID":"2017-061F","EPOCH":"2026-02-01T15:43:34.824288","MEAN_MOTION":14.34216737,"ECCENTRICITY":0.00023923,"INCLINATION":86.3931,"RA_OF_ASC_NODE":81.9484,"ARG_OF_PERICENTER":86.7511,"MEAN_ANOMALY":273.3959,"EPHEMERIS_TYPE":0,"CLASSIFICATION_TYPE":"U","NORAD_CAT_ID":42960,"ELEMENT_SET_NO":999,"REV_AT_EPOCH":43539,"BSTAR":5.969452e-6,"MEAN_MOTION_DOT":3.7e-7,"MEAN_MOTION_DDOT":0},{"OBJECT_NAME":"IRIDIUM 132","OBJECT_ID":"2017-061G","EPOCH":"2026-02-01T15:52:42.742848","MEAN_MOTION":14.34217364,"ECCENTRICITY":0.00022196,"INCLINATION":86.3927,"RA_OF_ASC_NODE":81.9263,"ARG_OF_PERICENTER":90.9784,"MEAN_ANOMALY":269.1666,"EPHEMERIS_TYPE":0,"CLASSIFICATION_TYPE":"U","NORAD_CAT_ID":42961,"ELEMENT_SET_NO":999,"REV_AT_EPOCH":43539,"BSTAR":4.9116574e-5,"MEAN_MOTION_DOT":1.57e-6,"MEAN_MOTION_DDOT":0},{"OBJECT_NAME":"IRIDIUM 136","OBJECT_ID":"2017-061H","EPOCH":"2026-02-01T13:17:26.913408","MEAN_MOTION":14.34218819,"ECCENTRICITY":0.00023616,"INCLINATION":86.3929,"RA_OF_ASC_NODE":81.9775,"ARG_OF_PERICENTER":93.2964,"MEAN_ANOMALY":266.8502,"EPHEMERIS_TYPE":0,"CLASSIFICATION_TYPE":"U","NORAD_CAT_ID":42962,"ELEMENT_SET_NO":999,"REV_AT_EPOCH":43539,"BSTAR":9.4142887e-5,"MEAN_MOTION_DOT":2.83e-6,"MEAN_MOTION_DDOT":0},{"OBJECT_NAME":"IRIDIUM 139","OBJECT_ID":"2017-061J","EPOCH":"2026-02-01T16:47:30.706944","MEAN_MOTION":14.34216646,"ECCENTRICITY":0.00021882,"INCLINATION":86.3927,"RA_OF_ASC_NODE":81.9762,"ARG_OF_PERICENTER":90.992,"MEAN_ANOMALY":269.1526,"EPHEMERIS_TYPE":0,"CLASSIFICATION_TYPE":"U","NORAD_CAT_ID":42963,"ELEMENT_SET_NO":999,"REV_AT_EPOCH":43542,"BSTAR":2.6343673e-5,"MEAN_MOTION_DOT":9.4e-7,"MEAN_MOTION_DDOT":0},{"OBJECT_NAME":"IRIDIUM 125","OBJECT_ID":"2017-061K","EPOCH":"2026-02-01T19:50:10.451904","MEAN_MOTION":14.34215681,"ECCENTRICITY":0.00027721,"INCLINATION":86.393,"RA_OF_ASC_NODE":81.9818,"ARG_OF_PERICENTER":89.7722,"MEAN_ANOMALY":270.3791,"EPHEMERIS_TYPE":0,"CLASSIFICATION_TYPE":"U","NORAD_CAT_ID":42964,"ELEMENT_SET_NO":999,"REV_AT_EPOCH":43545,"BSTAR":5.9436023e-5,"MEAN_MOTION_DOT":1.86e-6,"MEAN_MOTION_DDOT":0},{"OBJECT_NAME":"IRIDIUM 135","OBJECT_ID":"2017-083A","EPOCH":"2026-02-01T22:33:51.228864","MEAN_MOTION":14.34217214,"ECCENTRICITY":0.0002178,"INCLINATION":86.3967,"RA_OF_ASC_NODE":18.5283,"ARG_OF_PERICENTER":89.0312,"MEAN_ANOMALY":271.1134,"EPHEMERIS_TYPE":0,"CLASSIFICATION_TYPE":"U","NORAD_CAT_ID":43070,"ELEMENT_SET_NO":999,"REV_AT_EPOCH":42476,"BSTAR":3.786633e-6,"MEAN_MOTION_DOT":3.0e-7,"MEAN_MOTION_DDOT":0},{"OBJECT_NAME":"IRIDIUM 138","OBJECT_ID":"2017-083B","EPOCH":"2026-02-01T23:10:23.217600","MEAN_MOTION":14.34217065,"ECCENTRICITY":0.00025417,"INCLINATION":86.3981,"RA_OF_ASC_NODE":18.1924,"ARG_OF_PERICENTER":92.475,"MEAN_ANOMALY":267.6737,"EPHEMERIS_TYPE":0,"CLASSIFICATION_TYPE":"U","NORAD_CAT_ID":43071,"ELEMENT_SET_NO":999,"REV_AT_EPOCH":42475,"BSTAR":3.7562043e-5,"MEAN_MOTION_DOT":1.25e-6,"MEAN_MOTION_DDOT":0},{"OBJECT_NAME":"IRIDIUM 116","OBJECT_ID":"2017-083C","EPOCH":"2026-02-01T22:24:42.981120","MEAN_MOTION":14.34216229,"ECCENTRICITY":0.0001924,"INCLINATION":86.3966,"RA_OF_ASC_NODE":18.5187,"ARG_OF_PERICENTER":81.7268,"MEAN_ANOMALY":278.4146,"EPHEMERIS_TYPE":0,"CLASSIFICATION_TYPE":"U","NORAD_CAT_ID":43072,"ELEMENT_SET_NO":999,"REV_AT_EPOCH":42478,"BSTAR":6.850253e-5,"MEAN_MOTION_DOT":2.12e-6,"MEAN_MOTION_DDOT":0},{"OBJECT_NAME":"IRIDIUM 130","OBJECT_ID":"2017-083D","EPOCH":"2026-02-01T23:19:31.175904","MEAN_MOTION":14.34217699,"ECCENTRICITY":0.0002172,"INCLINATION":86.3975,"RA_OF_ASC_NODE":18.7648,"ARG_OF_PERICENTER":80.1131,"MEAN_ANOMALY":280.031,"EPHEMERIS_TYPE":0,"CLASSIFICATION_TYPE":"U","NORAD_CAT_ID":43073,"ELEMENT_SET_NO":999,"REV_AT_EPOCH":42473,"BSTAR":2.7619472e-5,"MEAN_MOTION_DOT":9.7e-7,"MEAN_MOTION_DDOT":0}]
